ONEWEB-0229             
1 48779U 21045N   26089.87481542  .00000148  00000+0  36025-3 0  9992
2 48779  87.8934 274.8164 0001780  97.6799 262.4534 13.15549242234114
ONEWEB-0228             
1 48780U 21045P   26089.90823877 -.00000007  00000+0 -53251-4 0  9996
2 48780  87.8938 274.7970 0001818  93.7050 266.4288 13.15549253234036
ONEWEB-0232             
1 48781U 21045Q   26089.80669156  .00000392  00000+0  10070-2 0  9999
2 48781  87.8947 274.8187 0001738  93.6013 266.5316 13.15549221234349
ONEWEB-0231             
1 48782U 21045R   26089.93661251  .00000031  00000+0  48526-4 0  9991
2 48782  87.8926 274.8156 0001968  92.5667 267.5689 13.15549141234054
ONEWEB-0234             
1 48783U 21045S   26089.89845040  .00000121  00000+0  28722-3 0  9992
2 48783  87.8931 274.8012 0001642  63.7261 296.4038 13.15547105234182
ONEWEB-0238             
1 48784U 21045T   26089.89872917  .00000145  00000+0  35061-3 0  9996
2 48784  87.8929 274.7948 0001609  78.2332 281.8979 13.15549738234085
ONEWEB-0240             
1 48785U 21045U   26089.76786157 -.00000110  00000+0 -32614-3 0  9998
2 48785  87.8946 274.8265 0002018  88.0854 272.0508 13.15549913234097
ONEWEB-0246             
1 48786U 21045V   26089.76231454 -.00000064  00000+0 -20518-3 0  9992
2 48786  87.8937 274.8351 0001777  96.8426 263.2906 13.15549632233964
ONEWEB-0210             
1 48787U 21045W   26089.88907741  .00000076  00000+0  16655-3 0  9993
2 48787  87.8938 274.8066 0002368 111.5977 248.5406 13.15548949234021
ONEWEB-0214             
1 48788U 21045X   26089.89779680  .00000113  00000+0  26656-3 0  9998
2 48788  87.8939 274.8010 0001869 105.7916 254.3421 13.15549416233992
ONEWEB-0221             
1 48789U 21045Y   26089.90491021  .00000118  00000+0  27952-3 0  9996
2 48789  87.8939 274.8092 0001928  93.1113 267.0238 13.15547558234081
ONEWEB-0213             
1 48790U 21045Z   26089.89381709  .00000155  00000+0  37649-3 0  9992
2 48790  87.8937 274.8152 0002001  97.3401 262.7957 13.15550255234142
ONEWEB-0212             
1 48791U 21045AA  26089.87085685  .00000095  00000+0  21869-3 0  9995
2 48791  87.8935 274.8142 0001682  91.6756 268.4567 13.15548785234138
ONEWEB-0227             
1 48792U 21045AB  26089.94612346  .00000122  00000+0  28919-3 0  9998
2 48792  87.8932 274.8012 0001761  91.7004 268.4328 13.15549560234099
ONEWEB-0226             
1 48793U 21045AC  26089.93977730  .00000024  00000+0  28712-4 0  9992
2 48793  87.8925 274.8101 0001953  99.7177 260.4174 13.15549543234062
ONEWEB-0224             
1 48794U 21045AD  26089.90332804  .00000092  00000+0  21018-3 0  9993
2 48794  87.8927 274.8534 0002215  71.3309 288.8061 13.15551429233985
