[{"OBJECT_NAME":"ONEWEB-0229","OBJECT_ID":"2021-045N","EPOCH":"2026-03-30T20:59:44.052288","MEAN_MOTION":13.15549242,"ECCENTRICITY":0.000178,"INCLINATION":87.8934,"RA_OF_ASC_NODE":274.8164,"ARG_OF_PERICENTER":97.6799,"MEAN_ANOMALY":262.4534,"EPHEMERIS_TYPE":0,"CLASSIFICATION_TYPE":"U","NORAD_CAT_ID":48779,"ELEMENT_SET_NO":999,"REV_AT_EPOCH":23411,"BSTAR":0.00036025,"MEAN_MOTION_DOT":1.48e-06,"MEAN_MOTION_DDOT":0.0},{"OBJECT_NAME":"ONEWEB-0228","OBJECT_ID":"2021-045P","EPOCH":"2026-03-30T21:47:51.829728","MEAN_MOTION":13.15549253,"ECCENTRICITY":0.0001818,"INCLINATION":87.8938,"RA_OF_ASC_NODE":274.797,"ARG_OF_PERICENTER":93.705,"MEAN_ANOMALY":266.4288,"EPHEMERIS_TYPE":0,"CLASSIFICATION_TYPE":"U","NORAD_CAT_ID":48780,"ELEMENT_SET_NO":999,"REV_AT_EPOCH":23403,"BSTAR":-5.325100000000001e-05,"MEAN_MOTION_DOT":-7e-08,"MEAN_MOTION_DDOT":0.0},{"OBJECT_NAME":"ONEWEB-0232","OBJECT_ID":"2021-045Q","EPOCH":"2026-03-30T19:21:38.150784","MEAN_MOTION":13.15549221,"ECCENTRICITY":0.0001738,"INCLINATION":87.8947,"RA_OF_ASC_NODE":274.8187,"ARG_OF_PERICENTER":93.6013,"MEAN_ANOMALY":266.5316,"EPHEMERIS_TYPE":0,"CLASSIFICATION_TYPE":"U","NORAD_CAT_ID":48781,"ELEMENT_SET_NO":999,"REV_AT_EPOCH":23434,"BSTAR":0.001007,"MEAN_MOTION_DOT":3.92e-06,"MEAN_MOTION_DDOT":0.0},{"OBJECT_NAME":"ONEWEB-0231","OBJECT_ID":"2021-045R","EPOCH":"2026-03-30T22:28:43.320864","MEAN_MOTION":13.15549141,"ECCENTRICITY":0.0001968,"INCLINATION":87.8926,"RA_OF_ASC_NODE":274.8156,"ARG_OF_PERICENTER":92.5667,"MEAN_ANOMALY":267.5689,"EPHEMERIS_TYPE":0,"CLASSIFICATION_TYPE":"U","NORAD_CAT_ID":48782,"ELEMENT_SET_NO":999,"REV_AT_EPOCH":23405,"BSTAR":4.8526e-05,"MEAN_MOTION_DOT":3.1e-07,"MEAN_MOTION_DDOT":0.0},{"OBJECT_NAME":"ONEWEB-0234","OBJECT_ID":"2021-045S","EPOCH":"2026-03-30T21:33:46.114560","MEAN_MOTION":13.15547105,"ECCENTRICITY":0.0001642,"INCLINATION":87.8931,"RA_OF_ASC_NODE":274.8012,"ARG_OF_PERICENTER":63.7261,"MEAN_ANOMALY":296.4038,"EPHEMERIS_TYPE":0,"CLASSIFICATION_TYPE":"U","NORAD_CAT_ID":48783,"ELEMENT_SET_NO":999,"REV_AT_EPOCH":23418,"BSTAR":0.00028722,"MEAN_MOTION_DOT":1.21e-06,"MEAN_MOTION_DDOT":0.0},{"OBJECT_NAME":"ONEWEB-0238","OBJECT_ID":"2021-045T","EPOCH":"2026-03-30T21:34:10.200288","MEAN_MOTION":13.15549738,"ECCENTRICITY":0.0001609,"INCLINATION":87.8929,"RA_OF_ASC_NODE":274.7948,"ARG_OF_PERICENTER":78.2332,"MEAN_ANOMALY":281.8979,"EPHEMERIS_TYPE":0,"CLASSIFICATION_TYPE":"U","NORAD_CAT_ID":48784,"ELEMENT_SET_NO":999,"REV_AT_EPOCH":23408,"BSTAR":0.00035061,"MEAN_MOTION_DOT":1.45e-06,"MEAN_MOTION_DDOT":0.0},{"OBJECT_NAME":"ONEWEB-0240","OBJECT_ID":"2021-045U","EPOCH":"2026-03-30T18:25:43.239648","MEAN_MOTION":13.15549913,"ECCENTRICITY":0.0002018,"INCLINATION":87.8946,"RA_OF_ASC_NODE":274.8265,"ARG_OF_PERICENTER":88.0854,"MEAN_ANOMALY":272.0508,"EPHEMERIS_TYPE":0,"CLASSIFICATION_TYPE":"U","NORAD_CAT_ID":48785,"ELEMENT_SET_NO":999,"REV_AT_EPOCH":23409,"BSTAR":-0.00032614,"MEAN_MOTION_DOT":-1.1e-06,"MEAN_MOTION_DDOT":0.0},{"OBJECT_NAME":"ONEWEB-0246","OBJECT_ID":"2021-045V","EPOCH":"2026-03-30T18:17:43.976256","MEAN_MOTION":13.15549632,"ECCENTRICITY":0.0001777,"INCLINATION":87.8937,"RA_OF_ASC_NODE":274.8351,"ARG_OF_PERICENTER":96.8426,"MEAN_ANOMALY":263.2906,"EPHEMERIS_TYPE":0,"CLASSIFICATION_TYPE":"U","NORAD_CAT_ID":48786,"ELEMENT_SET_NO":999,"REV_AT_EPOCH":23396,"BSTAR":-0.00020518,"MEAN_MOTION_DOT":-6.4e-07,"MEAN_MOTION_DDOT":0.0},{"OBJECT_NAME":"ONEWEB-0210","OBJECT_ID":"2021-045W","EPOCH":"2026-03-30T21:20:16.288224","MEAN_MOTION":13.15548949,"ECCENTRICITY":0.0002368,"INCLINATION":87.8938,"RA_OF_ASC_NODE":274.8066,"ARG_OF_PERICENTER":111.5977,"MEAN_ANOMALY":248.5406,"EPHEMERIS_TYPE":0,"CLASSIFICATION_TYPE":"U","NORAD_CAT_ID":48787,"ELEMENT_SET_NO":999,"REV_AT_EPOCH":23402,"BSTAR":0.00016655,"MEAN_MOTION_DOT":7.6e-07,"MEAN_MOTION_DDOT":0.0},{"OBJECT_NAME":"ONEWEB-0214","OBJECT_ID":"2021-045X","EPOCH":"2026-03-30T21:32:49.643520","MEAN_MOTION":13.15549416,"ECCENTRICITY":0.0001869,"INCLINATION":87.8939,"RA_OF_ASC_NODE":274.801,"ARG_OF_PERICENTER":105.7916,"MEAN_ANOMALY":254.3421,"EPHEMERIS_TYPE":0,"CLASSIFICATION_TYPE":"U","NORAD_CAT_ID":48788,"ELEMENT_SET_NO":999,"REV_AT_EPOCH":23399,"BSTAR":0.00026656000000000005,"MEAN_MOTION_DOT":1.13e-06,"MEAN_MOTION_DDOT":0.0},{"OBJECT_NAME":"ONEWEB-0221","OBJECT_ID":"2021-045Y","EPOCH":"2026-03-30T21:43:04.242144","MEAN_MOTION":13.15547558,"ECCENTRICITY":0.0001928,"INCLINATION":87.8939,"RA_OF_ASC_NODE":274.8092,"ARG_OF_PERICENTER":93.1113,"MEAN_ANOMALY":267.0238,"EPHEMERIS_TYPE":0,"CLASSIFICATION_TYPE":"U","NORAD_CAT_ID":48789,"ELEMENT_SET_NO":999,"REV_AT_EPOCH":23408,"BSTAR":0.00027952,"MEAN_MOTION_DOT":1.18e-06,"MEAN_MOTION_DDOT":0.0},{"OBJECT_NAME":"ONEWEB-0213","OBJECT_ID":"2021-045Z","EPOCH":"2026-03-30T21:27:05.796576","MEAN_MOTION":13.15550255,"ECCENTRICITY":0.0002001,"INCLINATION":87.8937,"RA_OF_ASC_NODE":274.8152,"ARG_OF_PERICENTER":97.3401,"MEAN_ANOMALY":262.7957,"EPHEMERIS_TYPE":0,"CLASSIFICATION_TYPE":"U","NORAD_CAT_ID":48790,"ELEMENT_SET_NO":999,"REV_AT_EPOCH":23414,"BSTAR":0.00037649,"MEAN_MOTION_DOT":1.55e-06,"MEAN_MOTION_DDOT":0.0},{"OBJECT_NAME":"ONEWEB-0212","OBJECT_ID":"2021-045AA","EPOCH":"2026-03-30T20:54:02.031840","MEAN_MOTION":13.15548785,"ECCENTRICITY":0.0001682,"INCLINATION":87.8935,"RA_OF_ASC_NODE":274.8142,"ARG_OF_PERICENTER":91.6756,"MEAN_ANOMALY":268.4567,"EPHEMERIS_TYPE":0,"CLASSIFICATION_TYPE":"U","NORAD_CAT_ID":48791,"ELEMENT_SET_NO":999,"REV_AT_EPOCH":23413,"BSTAR":0.00021869,"MEAN_MOTION_DOT":9.5e-07,"MEAN_MOTION_DDOT":0.0},{"OBJECT_NAME":"ONEWEB-0227","OBJECT_ID":"2021-045AB","EPOCH":"2026-03-30T22:42:25.066944","MEAN_MOTION":13.1554956,"ECCENTRICITY":0.0001761,"INCLINATION":87.8932,"RA_OF_ASC_NODE":274.8012,"ARG_OF_PERICENTER":91.7004,"MEAN_ANOMALY":268.4328,"EPHEMERIS_TYPE":0,"CLASSIFICATION_TYPE":"U","NORAD_CAT_ID":48792,"ELEMENT_SET_NO":999,"REV_AT_EPOCH":23409,"BSTAR":0.00028919,"MEAN_MOTION_DOT":1.22e-06,"MEAN_MOTION_DDOT":0.0},{"OBJECT_NAME":"ONEWEB-0226","OBJECT_ID":"2021-045AC","EPOCH":"2026-03-30T22:33:16.758720","MEAN_MOTION":13.15549543,"ECCENTRICITY":0.0001953,"INCLINATION":87.8925,"RA_OF_ASC_NODE":274.8101,"ARG_OF_PERICENTER":99.7177,"MEAN_ANOMALY":260.4174,"EPHEMERIS_TYPE":0,"CLASSIFICATION_TYPE":"U","NORAD_CAT_ID":48793,"ELEMENT_SET_NO":999,"REV_AT_EPOCH":23406,"BSTAR":2.8712e-05,"MEAN_MOTION_DOT":2.4e-07,"MEAN_MOTION_DDOT":0.0},{"OBJECT_NAME":"ONEWEB-0224","OBJECT_ID":"2021-045AD","EPOCH":"2026-03-30T21:40:47.542656","MEAN_MOTION":13.15551429,"ECCENTRICITY":0.0002215,"INCLINATION":87.8927,"RA_OF_ASC_NODE":274.8534,"ARG_OF_PERICENTER":71.3309,"MEAN_ANOMALY":288.8061,"EPHEMERIS_TYPE":0,"CLASSIFICATION_TYPE":"U","NORAD_CAT_ID":48794,"ELEMENT_SET_NO":999,"REV_AT_EPOCH":23398,"BSTAR":0.00021018,"MEAN_MOTION_DOT":9.2e-07,"MEAN_MOTION_DDOT":0.0}]